QIANFAN-9               
1 60387U 24140J   25204.62793641  .00000125  00000+0  17548-3 0  9991
2 60387  88.9849 314.0105 0014638 243.7921 116.1726 13.50954360 48143
QIANFAN-10              
1 60388U 24140K   25204.63208747  .00000122  00000+0  16996-3 0  9994
2 60388  88.9858 313.3445 0013749 218.5004 141.5168 13.50956786 48277
QIANFAN-11              
1 60389U 24140L   25204.59501674  .00000137  00000+0  19325-3 0  9990
2 60389  88.9784 314.0406 0012672 242.9057 117.0801 13.50956960 47921
QIANFAN-12              
1 60390U 24140M   25204.61553521  .00000116  00000+0  16096-3 0  9992
2 60390  88.9828 314.0198 0011329 251.6382 108.3538 13.50956722 48057
QIANFAN-13              
1 60391U 24140N   25204.58675025  .00000137  00000+0  19348-3 0  9999
2 60391  88.9840 314.1051 0011097 254.7664 105.2260 13.50956546 48074
QIANFAN-14              
1 60392U 24140P   25204.61139626  .00000120  00000+0  16715-3 0  9993
2 60392  88.9819 314.0306 0014780 255.6746 104.2764 13.50957631 48081
QIANFAN-15              
1 60393U 24140Q   25204.61973928  .00000116  00000+0  16125-3 0  9995
2 60393  88.9842 313.9526 0010871 238.5099 121.4990 13.50954443 48077
QIANFAN-16              
1 60394U 24140R   25204.60738303  .00000115  00000+0  15999-3 0  9998
2 60394  88.9845 314.0696 0012655 259.7112 100.2612 13.50956743 47984
